INTELSAT 902 (IS-902)   
1 26900U 01039A   26200.05253069 -.00000292  00000+0  00000+0 0  9992
2 26900   6.1941  71.3897 0004165  46.3194 147.9494  1.00271218 91019
INTELSAT 904 (IS-904)   
1 27380U 02007A   26199.99628075 -.00000235  00000+0  00000+0 0  9991
2 27380   6.9975  68.7995 0005421  27.8460 167.3179  1.00270302 52085
DIRECTV 5 (TEMPO 1)     
1 27426U 02023A   26199.51290459 -.00000067  00000+0  00000+0 0  9992
2 27426   4.9560  74.9187 0003235  49.6904 246.2352  1.00271928 88435
INTELSAT 905 (IS-905)   
1 27438U 02027A   26200.23670806  .00000085  00000+0  00000+0 0  9998
2 27438   6.8320  69.4102 0003574  49.2193 126.4045  1.00273025 51686
GALAXY 3C (G-3C)        
1 27445U 02030A   26200.22873587 -.00000160  00000+0  00000+0 0  9995
2 27445   3.8153  77.5635 0001699  30.6087 176.3500  1.00271072 46817
INTELSAT 906 (IS-906)   
1 27513U 02041A   26200.20528046  .00000005  00000+0  00000+0 0  9995
2 27513   5.8801  72.5236 0003515  29.1295 333.4091  1.00271861 87351
GALAXY 13 (HORIZONS-1)  
1 27954U 03044A   26200.23864253  .00000127  00000+0  00000+0 0  9999
2 27954   1.4990  83.4473 0002099  37.3610 112.1237  1.00273099 46896
INTELSAT 10-02          
1 28358U 04022A   26199.91711434 -.00000018  00000+0  00000+0 0  9999
2 28358   0.0523 253.6759 0000144 353.6873  18.4990  1.00270578 80873
DIRECTV 8               
1 28659U 05019A   26200.28869301 -.00000004  00000+0  00000+0 0  9995
2 28659   0.0194  60.4621 0003059  62.5263 158.9593  1.00272331 77391
GALAXY 28 (G-28)        
1 28702U 05022A   26200.25852154 -.00000207  00000+0  00000+0 0  9998
2 28702   3.3781  78.5346 0002465  34.7015 249.7817  1.00271085 52293
GALAXY 16 (G-16)        
1 29236U 06023A   26200.27961361 -.00000132  00000+0  00000+0 0  9993
2 29236   0.0246 144.1590 0002656 333.9121 180.6459  1.00271607 73299
DIRECTV 9S              
1 29494U 06043A   26200.27961361 -.00000120  00000+0  00000+0 0  9998
2 29494   2.5018  80.5171 0005072  33.1948 182.8143  1.00271601 51708
GALAXY 17 (G-17)        
1 31307U 07016B   26200.24708149 -.00000213  00000+0  00000+0 0  9998
2 31307   3.0509  79.4975 0003719  37.3766 184.0853  1.00271154 70126
INTELSAT 11 (IS-11)     
1 32253U 07044B   26200.26086155 -.00000230  00000+0  00000+0 0  9997
2 32253   3.6471  78.2807 0004385  99.3647 198.0711  0.99053079 68764
HORIZONS-2              
1 32388U 07063B   26200.23373770 -.00000260  00000+0  00000+0 0  9999
2 32388   2.6829  80.2343 0003610  18.4329 208.6971  1.00272804 68135
DIRECTV 11              
1 32729U 08013A   26200.27961361 -.00000131  00000+0  00000+0 0  9994
2 32729   0.0031 212.5451 0000103 223.2446 222.7471  1.00271111 45914
GALAXY 18 (G-18)        
1 32951U 08024A   26200.22081727  .00000020  00000+0  00000+0 0  9993
2 32951   0.0211  81.9728 0002952  35.2298 136.2801  1.00271765 46176
GALAXY 19 (G-19)        
1 33376U 08045A   26200.22818785 -.00000144  00000+0  00000+0 0  9998
2 33376   0.0467 241.5658 0002529 246.7814 153.8146  1.00271024 65222
FM-5                    
1 35493U 09034A   26199.57753144 -.00000206  00000+0  00000+0 0  9990
2 35493   0.0392 242.8296 0001121 120.9161  54.3676  1.00266302 46953
INTELSAT 14 (IS-14)     
1 36097U 09064A   26200.25496819 -.00000279  00000+0  00000+0 0  9995
2 36097   0.0153  44.1292 0002496  77.0102 222.6868  1.00272379 60928
INTELSAT 15 (IS-15)     
1 36106U 09067A   26200.12316785 -.00000191  00000+0  00000+0 0  9991
2 36106   0.0175  48.4187 0002325  68.1988 309.7791  1.00272730 41547
DIRECTV 12              
1 36131U 09075A   26200.17223323 -.00000109  00000+0  00000+0 0  9997
2 36131   0.0319 195.8259 0000219  15.5870  44.8274  1.00272152 46870
INTELSAT 16 (IS-16)     
1 36397U 10006A   26200.24881483 -.00000250  00000+0  00000+0 0  9999
2 36397   0.0202  65.3469 0002422  71.0433 174.0100  1.00271684 59977
XM-5                    
1 37185U 10053A   26200.22197497 -.00000028  00000+0  00000+0 0  9993
2 37185   0.0608 264.4452 0001287 319.1669  38.1137  1.00272406 57805
INTELSAT 17 (IS-17)     
1 37238U 10065B   26200.18219453 -.00000007  00000+0  00000+0 0  9994
2 37238   0.0079  91.6693 0002568  38.3053 298.5862  1.00272568 53568
INTELSAT 28 (IS-28)     
1 37392U 11016A   26200.25765487 -.00000231  00000+0  00000+0 0  9992
2 37392   1.8873  82.2357 0003856  41.7780 234.0815  1.00271704 53608
INTELSAT 18 (IS-18)     
1 37834U 11056A   26200.25531009  .00000048  00000+0  00000+0 0  9993
2 37834   0.0394 234.1228 0001435 270.6110  64.2258  1.00274773 54136
INTELSAT 22 (IS-22)     
1 38098U 12011A   26200.18913678 -.00000064  00000+0  00000+0 0  9995
2 38098   0.0210  61.7067 0001841  68.6460 306.8175  1.00272040  7502
INTELSAT 19 (IS-19)     
1 38356U 12030A   26200.22547387 -.00000062  00000+0  00000+0 0  9996
2 38356   0.0149  56.3088 0002956  60.7094  67.1535  1.00272108 50776
INTELSAT 20 (IS-20)     
1 38740U 12043A   26200.19608413 -.00000030  00000+0  00000+0 0  9996
2 38740   0.0153  74.3878 0001344 108.5740 253.1165  1.00271123 51069
INTELSAT 21 (IS-21)     
1 38749U 12045A   26200.21912183 -.00000290  00000+0  00000+0 0  9990
2 38749   0.0491 244.4090 0001725 243.9872 189.5020  1.00271887 50846
INTELSAT 23 (IS-23)     
1 38867U 12057A   26200.25340818 -.00000290  00000+0  00000+0 0  9998
2 38867   0.0170   5.2080 0000362 122.0867 207.9463  1.00276653 50279
FM-6                    
1 39360U 13058A   26200.16954655 -.00000021  00000+0  00000+0 0  9991
2 39360   0.0133  42.8142 0001287 152.0607  46.7740  1.00273206 46391
INTELSAT 30 (IS-30)     
1 40271U 14062A   26200.23155557 -.00000156  00000+0  00000+0 0  9991
2 40271   0.0186  56.6968 0001643 335.4201 253.2172  1.00271945  7113
DIRECTV 14              
1 40333U 14078B   26200.27961361 -.00000130  00000+0  00000+0 0  9991
2 40333   0.0137  54.0997 0000296 327.7583 276.6199  1.00270373 42360
DIRECTV 15              
1 40663U 15026A   26200.17223323 -.00000108  00000+0  00000+0 0  9994
2 40663   0.0232  79.5274 0000294 332.9587 203.5949  1.00272226 40787
SKY MEXICO-1            
1 40664U 15026B   26200.23287253 -.00000240  00000+0  00000+0 0  9991
2 40664   0.0181  73.2818 0002415  59.4218 169.3576  1.00272705 40771
INTELSAT 34 (IS-34)     
1 40874U 15039A   26200.18162036 -.00000291  00000+0  00000+0 0  9999
2 40874   0.0106  20.4828 0000524 351.8153 294.5649  1.00272620 39958
INTELSAT 31 (IS-31)     
1 41581U 16035A   26200.23155626 -.00000156  00000+0  00000+0 0  9995
2 41581   0.0043 348.8206 0000958 312.1432 344.3692  1.00272130 37004
INTELSAT 36 (IS-36)     
1 41747U 16053A   26200.19608413 -.00000029  00000+0  00000+0 0  9990
2 41747   0.0092  26.0370 0002492 321.7372  88.2890  1.00271098 36277
INTELSAT 32E (IS-32E)   
1 41945U 17007B   26200.25531486 -.00000274  00000+0  00000+0 0  9994
2 41945   0.0144  36.7624 0000701 359.1654 309.8437  1.00274228 34549
INTELSAT 35E (IS-35E)   
1 42818U 17041A   26200.25704819 -.00000243  00000+0  00000+0 0  9990
2 42818   0.0157  69.5891 0001970  49.0457 236.4493  1.00272581 33139
INTELSAT 37E (IS-37E)   
1 42950U 17059A   26200.26034155 -.00000146  00000+0  00000+0 0  9998
2 42950   0.0174  81.4966 0002687  38.9301 252.3402  1.00272950 32385
AZERSPACE 2 (IS-38)     
1 43632U 18074A   26200.20155377  .00000000  00000+0  00000+0 0  9996
2 43632   0.0180  49.4353 0001510  59.6241 305.6149  1.00270259 28768
HORIZONS-3E             
1 43633U 18074B   26200.15482613 -.00000036  00000+0  00000+0 0  9997
2 43633   0.0325 259.1318 0000660  29.8617 232.6746  1.00271726 28663
AT&T T-16               
1 44333U 19034A   26200.28422029 -.00000120  00000+0  00000+0 0  9995
2 44333   0.0144  75.3798 0000793 282.6728 300.4855  1.00272345 25951
INTELSAT 39 (IS-39)     
1 44476U 19049B   26200.20493380  .00000000  00000+0  00000+0 0  9995
2 44476   0.0174  49.6073 0000871 311.7489  71.3737  1.00270751 25443
GALAXY 30 (G-30)        
1 46114U 20056C   26200.22043021  .00000031  00000+0  00000+0 0  9995
2 46114   0.0199  55.0138 0002239  63.4215 132.9302  1.00272876 21619
GALAXY 33 (G-33)        
1 54026U 22128A   26200.23757472  .00000074  00000+0  00000+0 0  9998
2 54026   0.0197  67.1155 0001912  47.0253 135.3904  1.00270535 14064
GALAXY 34 (G-34)        
1 54027U 22128B   26200.00947611  .00000052  00000+0  00000+0 0  9996
2 54027   0.0126  76.0875 0002039  52.1986  42.9363  1.00280002 14237
GALAXY 31 (G-31)        
1 54243U 22153A   26200.24916641  .00000008  00000+0  00000+0 0  9990
2 54243   0.0222  95.2270 0001160  24.2367 146.2594  1.00272538  7458
GALAXY 32 (G-32)        
1 54244U 22153B   26200.23308634 -.00000179  00000+0  00000+0 0  9997
2 54244   0.0148  58.0820 0001410 351.1877 240.6668  1.00272371 13464
GALAXY 35 (G-35)        
1 54741U 22170A   26200.22920104 -.00000167  00000+0  00000+0 0  9996
2 54741   0.0172  94.5676 0001936  21.9805 169.8728  1.00272223 13211
GALAXY 36 (G-36)        
1 54742U 22170B   26200.23227147 -.00000190  00000+0  00000+0 0  9991
2 54742   0.0194 140.7869 0002693 317.8610 192.9911  1.00271810 13094
GALAXY 37 (G-37)        
1 57493U 23112A   26200.26312675  .00000000  00000+0  00000+0 0  9997
2 57493   0.0222  58.7366 0002125  57.3926 148.6551  1.00270756 10866
